OBJECT_NAME,OBJECT_ID,EPOCH,MEAN_MOTION,ECCENTRICITY,INCLINATION,RA_OF_ASC_NODE,ARG_OF_PERICENTER,MEAN_ANOMALY,EPHEMERIS_TYPE,CLASSIFICATION_TYPE,NORAD_CAT_ID,ELEMENT_SET_NO,REV_AT_EPOCH,BSTAR,MEAN_MOTION_DOT,MEAN_MOTION_DDOT
STARLINK-37720,2026-110F,2026-06-03T12:00:22.000032,15.65121702,.0001936,97.2848,350.5773,75.4959,33.3132,0,U,69129,999,345,-.29648E-1,-.2540616E-1,0
STARLINK-37533,2026-110G,2026-06-03T11:07:56.221824,15.80915378,.0001563,97.2834,350.5807,109.7657,250.3780,0,U,69130,999,347,.10722E-2,.211248E-2,0
STARLINK-37530,2026-110H,2026-06-03T11:06:51.261120,15.80937874,.0001068,97.2833,350.5827,90.3481,269.7910,0,U,69131,999,347,.1362E-2,.270508E-2,0
STARLINK-37660,2026-110J,2026-06-03T12:37:09.901056,15.79927928,.0002089,97.2831,350.6500,143.9790,216.1619,0,U,69132,999,348,-.28001E-2,-.487555E-2,0
STARLINK-37633,2026-110K,2026-06-03T12:35:54.026304,15.80520580,.0001339,97.2833,350.6508,28.1741,331.9599,0,U,69133,999,348,-.17348E-2,-.316382E-2,0
STARLINK-37361,2026-110L,2026-06-03T11:03:36.601056,15.80897067,.0001473,97.2834,350.5855,100.0875,260.0560,0,U,69134,999,347,.85082E-3,.166594E-2,0
STARLINK-37372,2026-110M,2026-06-03T11:02:31.538400,15.80911864,.0001585,97.2834,350.5863,105.6514,254.4929,0,U,69135,999,347,.95825E-3,.188245E-2,0
STARLINK-37531,2026-110N,2026-06-03T11:01:26.734080,15.80903063,.0001256,97.2833,350.5875,97.8986,262.2425,0,U,69136,999,347,.99787E-3,.196134E-2,0
STARLINK-37662,2026-110P,2026-06-03T11:00:21.762144,15.80910651,.0001147,97.2835,350.5888,93.7585,266.3815,0,U,69137,999,347,.10745E-2,.211658E-2,0
STARLINK-37658,2026-110Q,2026-06-03T12:00:22.000032,15.74933768,.0001797,97.2849,350.6286,81.7320,144.3877,0,U,69138,999,346,-.16949E-1,-.2185654E-1,0
STARLINK-37659,2026-110R,2026-06-03T12:00:22.000032,15.73851073,.0001367,97.2853,350.6239,70.5292,144.8409,0,U,69139,999,346,-.76616E-2,-.963657E-2,0
STARLINK-37653,2026-110S,2026-06-03T12:00:22.000032,15.74106298,.0001852,97.2848,350.6271,69.5134,153.2701,0,U,69140,999,346,-.20453E-1,-.2490337E-1,0
STARLINK-37654,2026-110T,2026-06-03T10:56:02.137920,15.80885704,.0001604,97.2832,350.5927,115.6659,244.4775,0,U,69141,999,347,.7386E-3,.144156E-2,0
STARLINK-37655,2026-110U,2026-06-03T10:54:57.172032,15.80888482,.0001604,97.2832,350.5940,104.4317,255.7129,0,U,69142,999,347,.73623E-3,.143704E-2,0
STARLINK-37636,2026-110V,2026-06-03T10:53:52.357344,15.80890912,.0001404,97.2832,350.5954,87.9636,272.1793,0,U,69143,999,347,.8841E-3,.173201E-2,0
STARLINK-37638,2026-110W,2026-06-03T10:52:47.610048,15.80913661,.0001612,97.2827,350.5961,76.8576,283.2872,0,U,69144,999,347,.16262E-2,.324681E-2,0
STARLINK-37657,2026-110X,2026-06-03T10:51:42.487776,15.80926295,.000139,97.2829,350.5971,64.8612,295.2800,0,U,69145,999,347,.1395E-2,.277118E-2,0
STARLINK-37639,2026-110Y,2026-06-03T10:50:37.464864,15.80890800,.0001309,97.2832,350.5988,121.5387,238.6009,0,U,69146,999,347,.84299E-3,.164982E-2,0
STARLINK-37661,2026-110Z,2026-06-03T12:00:22.000032,15.77050963,.0001617,97.2838,350.6494,78.5279,195.8464,0,U,69147,999,351,-.96315E-2,-.1387416E-1,0
STARLINK-37395,2026-111A,2026-06-03T12:00:22.000032,15.80852786,.0001159,53.1586,220.2565,71.2215,355.3845,0,U,69148,999,334,.30907E-3,.60674E-3,0
STARLINK-37346,2026-111B,2026-06-03T12:00:22.000032,15.80865193,.0001008,53.1585,220.2443,79.3257,353.2121,0,U,69149,999,334,.11454E-3,.21957E-3,0
STARLINK-37332,2026-111C,2026-06-03T12:00:22.000032,15.80834948,.0001498,53.1584,220.2278,83.2434,357.0887,0,U,69150,999,334,.35207E-3,.69226E-3,0
STARLINK-37297,2026-111D,2026-06-03T12:00:22.000032,15.80850300,.0001045,53.1585,220.2414,66.6920,7.0815,0,U,69151,999,334,.49199E-3,.97402E-3,0
STARLINK-37317,2026-111E,2026-06-03T12:00:22.000032,15.80863564,.0001098,53.1584,220.2184,70.8453,14.0998,0,U,69152,999,334,.1388E-3,.26768E-3,0
STARLINK-37374,2026-111F,2026-06-03T12:00:22.000032,15.80831921,.0001021,53.1584,220.2006,87.0839,6.1438,0,U,69153,999,334,.34678E-3,.68157E-3,0
STARLINK-37235,2026-111G,2026-06-03T12:00:22.000032,15.80876071,.000118,53.1586,220.2084,85.9323,3.6524,0,U,69154,999,334,.89108E-4,.16925E-3,0
STARLINK-37329,2026-111H,2026-06-03T12:00:22.000032,15.80885087,.0001001,53.1586,220.2233,79.2966,3.1075,0,U,69155,999,334,-.17772E-3,-.35649E-3,0
STARLINK-37345,2026-111J,2026-06-03T12:00:22.000032,15.80858052,.0001064,53.1585,220.2067,83.4495,7.1956,0,U,69156,999,334,.23146E-3,.45192E-3,0
STARLINK-37353,2026-111K,2026-06-03T12:00:22.000032,15.80894857,.0000905,53.1586,220.2038,67.8578,24.0064,0,U,69157,999,334,-.25725E-3,-.51222E-3,0
STARLINK-37363,2026-111L,2026-06-03T12:00:22.000032,15.80896660,.0001183,53.1586,220.1793,90.5375,13.1582,0,U,69158,999,334,-.37338E-3,-.73847E-3,0
