STARLINK-37720          
1 69129U 26110F   26154.50025463 -.02540616  00000+0 -29648-1 0  9995
2 69129  97.2848 350.5773 0001936  75.4959  33.3132 15.65121702  3452
STARLINK-37533          
1 69130U 26110G   26154.46384516  .00211248  00000+0  10722-2 0  9995
2 69130  97.2834 350.5807 0001563 109.7657 250.3780 15.80915378  3478
STARLINK-37530          
1 69131U 26110H   26154.46309330  .00270508  00000+0  13620-2 0  9991
2 69131  97.2833 350.5827 0001068  90.3481 269.7910 15.80937874  3474
STARLINK-37660          
1 69132U 26110J   26154.52580904 -.00487555  00000+0 -28001-2 0  9990
2 69132  97.2831 350.6500 0002089 143.9790 216.1619 15.79927928  3484
STARLINK-37633          
1 69133U 26110K   26154.52493086 -.00316382  00000+0 -17348-2 0  9996
2 69133  97.2833 350.6508 0001339  28.1741 331.9599 15.80520580  3480
STARLINK-37361          
1 69134U 26110L   26154.46084029  .00166594  00000+0  85082-3 0  9990
2 69134  97.2834 350.5855 0001473 100.0875 260.0560 15.80897067  3479
STARLINK-37372          
1 69135U 26110M   26154.46008725  .00188245  00000+0  95825-3 0  9993
2 69135  97.2834 350.5863 0001585 105.6514 254.4929 15.80911864  3472
STARLINK-37531          
1 69136U 26110N   26154.45933720  .00196134  00000+0  99787-3 0  9992
2 69136  97.2833 350.5875 0001256  97.8986 262.2425 15.80903063  3475
STARLINK-37662          
1 69137U 26110P   26154.45858521  .00211658  00000+0  10745-2 0  9993
2 69137  97.2835 350.5888 0001147  93.7585 266.3815 15.80910651  3470
STARLINK-37658          
1 69138U 26110Q   26154.50025463 -.02185654  00000+0 -16949-1 0  9992
2 69138  97.2849 350.6286 0001797  81.7320 144.3877 15.74933768  3463
STARLINK-37659          
1 69139U 26110R   26154.50025463 -.00963657  00000+0 -76616-2 0  9996
2 69139  97.2853 350.6239 0001367  70.5292 144.8409 15.73851073  3467
STARLINK-37653          
1 69140U 26110S   26154.50025463 -.02490337  00000+0 -20453-1 0  9997
2 69140  97.2848 350.6271 0001852  69.5134 153.2701 15.74106298  3463
STARLINK-37654          
1 69141U 26110T   26154.45558030  .00144156  00000+0  73860-3 0  9996
2 69141  97.2832 350.5927 0001604 115.6659 244.4775 15.80885704  3472
STARLINK-37655          
1 69142U 26110U   26154.45482838  .00143704  00000+0  73623-3 0  9994
2 69142  97.2832 350.5940 0001604 104.4317 255.7129 15.80888482  3479
STARLINK-37636          
1 69143U 26110V   26154.45407821  .00173201  00000+0  88410-3 0  9999
2 69143  97.2832 350.5954 0001404  87.9636 272.1793 15.80890912  3473
STARLINK-37638          
1 69144U 26110W   26154.45332882  .00324681  00000+0  16262-2 0  9999
2 69144  97.2827 350.5961 0001612  76.8576 283.2872 15.80913661  3475
STARLINK-37657          
1 69145U 26110X   26154.45257509  .00277118  00000+0  13950-2 0  9995
2 69145  97.2829 350.5971 0001390  64.8612 295.2800 15.80926295  3471
STARLINK-37639          
1 69146U 26110Y   26154.45182251  .00164982  00000+0  84299-3 0  9996
2 69146  97.2832 350.5988 0001309 121.5387 238.6009 15.80890800  3478
STARLINK-37661          
1 69147U 26110Z   26154.50025463 -.01387416  00000+0 -96315-2 0  9997
2 69147  97.2838 350.6494 0001617  78.5279 195.8464 15.77050963  3519
STARLINK-37395          
1 69148U 26111A   26154.50025463  .00060674  00000+0  30907-3 0  9996
2 69148  53.1586 220.2565 0001159  71.2215 355.3845 15.80852786  3347
STARLINK-37346          
1 69149U 26111B   26154.50025463  .00021957  00000+0  11454-3 0  9994
2 69149  53.1585 220.2443 0001008  79.3257 353.2121 15.80865193  3340
STARLINK-37332          
1 69150U 26111C   26154.50025463  .00069226  00000+0  35207-3 0  9999
2 69150  53.1584 220.2278 0001498  83.2434 357.0887 15.80834948  3346
STARLINK-37297          
1 69151U 26111D   26154.50025463  .00097402  00000+0  49199-3 0  9992
2 69151  53.1585 220.2414 0001045  66.6920   7.0815 15.80850300  3346
STARLINK-37317          
1 69152U 26111E   26154.50025463  .00026768  00000+0  13880-3 0  9998
2 69152  53.1584 220.2184 0001098  70.8453  14.0998 15.80863564  3342
STARLINK-37374          
1 69153U 26111F   26154.50025463  .00068157  00000+0  34678-3 0  9995
2 69153  53.1584 220.2006 0001021  87.0839   6.1438 15.80831921  3343
STARLINK-37235          
1 69154U 26111G   26154.50025463  .00016925  00000+0  89108-4 0  9991
2 69154  53.1586 220.2084 0001180  85.9323   3.6524 15.80876071  3346
STARLINK-37329          
1 69155U 26111H   26154.50025463 -.00035649  00000+0 -17772-3 0  9995
2 69155  53.1586 220.2233 0001001  79.2966   3.1075 15.80885087  3347
STARLINK-37345          
1 69156U 26111J   26154.50025463  .00045192  00000+0  23146-3 0  9990
2 69156  53.1585 220.2067 0001064  83.4495   7.1956 15.80858052  3349
STARLINK-37353          
1 69157U 26111K   26154.50025463 -.00051222  00000+0 -25725-3 0  9999
2 69157  53.1586 220.2038 0000905  67.8578  24.0064 15.80894857  3341
STARLINK-37363          
1 69158U 26111L   26154.50025463 -.00073847  00000+0 -37338-3 0  9990
2 69158  53.1586 220.1793 0001183  90.5375  13.1582 15.80896660  3344
